{
  "type": "FeatureCollection",
  "features": [
    {
      "type": "Feature",
      "properties": {
        "norad_id": 39160,
        "name": "VNREDSAT 1",
        "group": "resource",
        "lat": -54.091782081331594,
        "lon": 52.20810774092373,
        "alt_km": 684.9859354873543,
        "timestamp": "2025-12-11T18:59:45.723261+00:00",
        "meta_object_name": "VNREDSAT 1",
        "meta_object_id": "2013-021B",
        "meta_epoch": "2025-12-11T06:07:54.093216",
        "meta_mean_motion": 14.64918175,
        "meta_eccentricity": 0.00013232,
        "meta_inclination": 97.9371,
        "meta_ra_of_asc_node": 40.5821,
        "meta_arg_of_pericenter": 79.6046,
        "meta_mean_anomaly": 280.5307,
        "meta_ephemeris_type": 0,
        "meta_classification_type": "U",
        "meta_norad_cat_id": 39160,
        "meta_element_set_no": 999,
        "meta_rev_at_epoch": 67277,
        "meta_bstar": 0.00015609423,
        "meta_mean_motion_dot": 7.89e-06,
        "meta_mean_motion_ddot": 0,
        "tle_line1": "1 39160U 13021B   25345.25548719  .00000789  00000+0  15609-3 0  9993",
        "tle_line2": "2 39160  97.9371  40.5821 0001323  79.6046 280.5307 14.64918175672778"
      },
      "geometry": {
        "type": "Point",
        "coordinates": [
          52.20810774092373,
          -54.091782081331594
        ]
      }
    },
    {
      "type": "Feature",
      "properties": {
        "norad_id": 39227,
        "name": "ARIRANG-5 (KOMPSAT-5)",
        "group": "resource",
        "lat": -67.48297619530334,
        "lon": -28.71563582388937,
        "alt_km": 562.8928702412186,
        "timestamp": "2025-12-11T18:59:45.723272+00:00",
        "meta_object_name": "ARIRANG-5 (KOMPSAT-5)",
        "meta_object_id": "2013-042A",
        "meta_epoch": "2025-12-11T06:43:13.558656",
        "meta_mean_motion": 15.04492414,
        "meta_eccentricity": 0.00037742,
        "meta_inclination": 97.614,
        "meta_ra_of_asc_node": 169.6053,
        "meta_arg_of_pericenter": 59.156,
        "meta_mean_anomaly": 301.0037,
        "meta_ephemeris_type": 0,
        "meta_classification_type": "U",
        "meta_norad_cat_id": 39227,
        "meta_element_set_no": 999,
        "meta_rev_at_epoch": 67560,
        "meta_bstar": 0.00018273496,
        "meta_mean_motion_dot": 2.497e-05,
        "meta_mean_motion_ddot": 0,
        "tle_line1": "1 39227U 13042A   25345.28001804  .00002497  00000+0  18273-3 0  9990",
        "tle_line2": "2 39227  97.6140 169.6053 0003774  59.1560 301.0037 15.04492414675601"
      },
      "geometry": {
        "type": "Point",
        "coordinates": [
          -28.71563582388937,
          -67.48297619530334
        ]
      }
    },
    {
      "type": "Feature",
      "properties": {
        "norad_id": 39418,
        "name": "SKYSAT-A",
        "group": "resource",
        "lat": -56.920035877139256,
        "lon": -155.49781761543787,
        "alt_km": 524.201872564543,
        "timestamp": "2025-12-11T18:59:45.723283+00:00",
        "meta_object_name": "SKYSAT-A",
        "meta_object_id": "2013-066C",
        "meta_epoch": "2025-12-11T02:03:34.692480",
        "meta_mean_motion": 15.11584453,
        "meta_eccentricity": 0.00206489,
        "meta_inclination": 97.4109,
        "meta_ra_of_asc_node": 35.3443,
        "meta_arg_of_pericenter": 242.5836,
        "meta_mean_anomaly": 117.3295,
        "meta_ephemeris_type": 0,
        "meta_classification_type": "U",
        "meta_norad_cat_id": 39418,
        "meta_element_set_no": 999,
        "meta_rev_at_epoch": 66005,
        "meta_bstar": 0.00036067695,
        "meta_mean_motion_dot": 6.089e-05,
        "meta_mean_motion_ddot": 0,
        "tle_line1": "1 39418U 13066C   25345.08581820  .00006089  00000+0  36068-3 0  9990",
        "tle_line2": "2 39418  97.4109  35.3443 0020648 242.5836 117.3295 15.11584453660051"
      },
      "geometry": {
        "type": "Point",
        "coordinates": [
          -155.49781761543787,
          -56.920035877139256
        ]
      }
    },
    {
      "type": "Feature",
      "properties": {
        "norad_id": 39419,
        "name": "DUBAISAT-2",
        "group": "resource",
        "lat": 30.46880664785357,
        "lon": -28.184564993751902,
        "alt_km": 536.7308141404519,
        "timestamp": "2025-12-11T18:59:45.723293+00:00",
        "meta_object_name": "DUBAISAT-2",
        "meta_object_id": "2013-066D",
        "meta_epoch": "2025-12-11T06:07:22.988352",
        "meta_mean_motion": 15.08337141,
        "meta_eccentricity": 0.00108069,
        "meta_inclination": 97.4456,
        "meta_ra_of_asc_node": 335.7081,
        "meta_arg_of_pericenter": 326.1582,
        "meta_mean_anomaly": 33.8956,
        "meta_ephemeris_type": 0,
        "meta_classification_type": "U",
        "meta_norad_cat_id": 39419,
        "meta_element_set_no": 999,
        "meta_rev_at_epoch": 65804,
        "meta_bstar": 0.0005787744,
        "meta_mean_motion_dot": 8.941e-05,
        "meta_mean_motion_ddot": 0,
        "tle_line1": "1 39419U 13066D   25345.25512718  .00008941  00000+0  57877-3 0  9990",
        "tle_line2": "2 39419  97.4456 335.7081 0010806 326.1582  33.8956 15.08337141658042"
      },
      "geometry": {
        "type": "Point",
        "coordinates": [
          -28.184564993751902,
          30.46880664785357
        ]
      }
    },
    {
      "type": "Feature",
      "properties": {
        "norad_id": 39574,
        "name": "GPM-CORE",
        "group": "resource",
        "lat": 35.95449460685708,
        "lon": -124.33596044904618,
        "alt_km": 435.72862542283383,
        "timestamp": "2025-12-11T18:59:45.723303+00:00",
        "meta_object_name": "GPM-CORE",
        "meta_object_id": "2014-009C",
        "meta_epoch": "2025-12-11T04:50:05.196192",
        "meta_mean_motion": 15.44425881,
        "meta_eccentricity": 0.00098951,
        "meta_inclination": 64.9737,
        "meta_ra_of_asc_node": 217.8304,
        "meta_arg_of_pericenter": 245.0152,
        "meta_mean_anomaly": 114.9961,
        "meta_ephemeris_type": 0,
        "meta_classification_type": "U",
        "meta_norad_cat_id": 39574,
        "meta_element_set_no": 999,
        "meta_rev_at_epoch": 66877,
        "meta_bstar": 0.00028961611,
        "meta_mean_motion_dot": 0.00013261,
        "meta_mean_motion_ddot": 0,
        "tle_line1": "1 39574U 14009C   25345.20144903  .00013261  00000+0  28962-3 0  9996",
        "tle_line2": "2 39574  64.9737 217.8304 0009895 245.0152 114.9961 15.44425881668778"
      },
      "geometry": {
        "type": "Point",
        "coordinates": [
          -124.33596044904618,
          35.95449460685708
        ]
      }
    },
    {
      "type": "Feature",
      "properties": {
        "norad_id": 39634,
        "name": "SENTINEL-1A",
        "group": "resource",
        "lat": -5.774154398692049,
        "lon": 170.21314608423964,
        "alt_km": 699.6757466031413,
        "timestamp": "2025-12-11T18:59:45.723314+00:00",
        "meta_object_name": "SENTINEL-1A",
        "meta_object_id": "2014-016A",
        "meta_epoch": "2025-12-11T04:58:55.286976",
        "meta_mean_motion": 14.59199001,
        "meta_eccentricity": 0.00012449,
        "meta_inclination": 98.1804,
        "meta_ra_of_asc_node": 350.4713,
        "meta_arg_of_pericenter": 83.8227,
        "meta_mean_anomaly": 276.3115,
        "meta_ephemeris_type": 0,
        "meta_classification_type": "U",
        "meta_norad_cat_id": 39634,
        "meta_element_set_no": 999,
        "meta_rev_at_epoch": 62260,
        "meta_bstar": 1.007976e-05,
        "meta_mean_motion_dot": 2e-08,
        "meta_mean_motion_ddot": 0,
        "tle_line1": "1 39634U 14016A   25345.20758434  .00000002  00000+0  10080-4 0  9993",
        "tle_line2": "2 39634  98.1804 350.4713 0001244  83.8227 276.3115 14.59199001622601"
      },
      "geometry": {
        "type": "Point",
        "coordinates": [
          170.21314608423964,
          -5.774154398692049
        ]
      }
    },
    {
      "type": "Feature",
      "properties": {
        "norad_id": 39731,
        "name": "KAZEOSAT 1",
        "group": "resource",
        "lat": -38.248114029848466,
        "lon": -128.92312166194736,
        "alt_km": 758.5434453694816,
        "timestamp": "2025-12-11T18:59:45.723326+00:00",
        "meta_object_name": "KAZEOSAT 1",
        "meta_object_id": "2014-024A",
        "meta_epoch": "2025-12-11T06:19:42.892896",
        "meta_mean_motion": 14.42060791,
        "meta_eccentricity": 0.0001081,
        "meta_inclination": 98.343,
        "meta_ra_of_asc_node": 57.2037,
        "meta_arg_of_pericenter": 95.4805,
        "meta_mean_anomaly": 264.6508,
        "meta_ephemeris_type": 0,
        "meta_classification_type": "U",
        "meta_norad_cat_id": 39731,
        "meta_element_set_no": 999,
        "meta_rev_at_epoch": 61147,
        "meta_bstar": 8.242624e-05,
        "meta_mean_motion_dot": 2.28e-06,
        "meta_mean_motion_ddot": 0,
        "tle_line1": "1 39731U 14024A   25345.26369089  .00000228  00000+0  82426-4 0  9993",
        "tle_line2": "2 39731  98.3430  57.2037 0001081  95.4805 264.6508 14.42060791611471"
      },
      "geometry": {
        "type": "Point",
        "coordinates": [
          -128.92312166194736,
          -38.248114029848466
        ]
      }
    }
  ]
}